{"type": "FeatureCollection", "features": [ {"type": "Feature", "properties": {"norad_id": 31287, "name": "FENGYUN 1C DEB", "group": "fengyun-1c-debris", "lat": -20.356354256009304, "lon": -135.19764597050604, "alt_km": 820.6105298996463, "timestamp": "2025-12-17T23:38:07.135669+00:00", "meta": {"OBJECT_NAME": "FENGYUN 1C DEB", "OBJECT_ID": "1999-025BNV", "EPOCH": "2025-12-17T09:14:55.199040", "MEAN_MOTION": 14.280549, "ECCENTRICITY": 0.0027206, "INCLINATION": 99.41, "RA_OF_ASC_NODE": 47.6846, "ARG_OF_PERICENTER": 50.1324, "MEAN_ANOMALY": 310.2241, "EPHEMERIS_TYPE": 0, "CLASSIFICATION_TYPE": "U", "NORAD_CAT_ID": 31287, "ELEMENT_SET_NO": 999, "REV_AT_EPOCH": 96752, "BSTAR": 0.0011667317, "MEAN_MOTION_DOT": 2.86e-05, "MEAN_MOTION_DDOT": 0}, "tle": {"line1": "1 31287U 99025BNV 25351.38536110  .00002860  00000+0  11667-2 0  9997", "line2": "2 31287  99.4100  47.6846 0027206  50.1324 310.2241 14.28054900967528"}}, "geometry": {"type": "Point", "coordinates": [-135.19764597050604, -20.356354256009304]}}, {"type": "Feature", "properties": {"norad_id": 31288, "name": "FENGYUN 1C DEB", "group": "fengyun-1c-debris", "lat": -0.17751924879238182, "lon": -29.385680160393505, "alt_km": 584.528429715775, "timestamp": "2025-12-17T23:38:07.135680+00:00", "meta": {"OBJECT_NAME": "FENGYUN 1C DEB", "OBJECT_ID": "1999-025BNW", "EPOCH": "2025-12-16T10:09:31.018752", "MEAN_MOTION": 14.96098786, "ECCENTRICITY": 0.0022775, "INCLINATION": 98.7461, "RA_OF_ASC_NODE": 148.8988, "ARG_OF_PERICENTER": 285.9174, "MEAN_ANOMALY": 128.7788, "EPHEMERIS_TYPE": 0, "CLASSIFICATION_TYPE": "U", "NORAD_CAT_ID": 31288, "ELEMENT_SET_NO": 999, "REV_AT_EPOCH": 97612, "BSTAR": 0.0036913925, "MEAN_MOTION_DOT": 0.00041884, "MEAN_MOTION_DDOT": 0}, "tle": {"line1": "1 31288U 99025BNW 25350.42327568  .00041884  00000+0  36914-2 0  9998", "line2": "2 31288  98.7461 148.8988 0022775 285.9174 128.7788 14.96098786976128"}}, "geometry": {"type": "Point", "coordinates": [-29.385680160393505, -0.17751924879238182]}}, {"type": "Feature", "properties": {"norad_id": 31293, "name": "FENGYUN 1C DEB", "group": "fengyun-1c-debris", "lat": -45.44571644788095, "lon": 8.239267122272368, "alt_km": 786.2643150921358, "timestamp": "2025-12-17T23:38:07.135690+00:00", "meta": {"OBJECT_NAME": "FENGYUN 1C DEB", "OBJECT_ID": "1999-025BPB", "EPOCH": "2025-12-15T06:23:47.129280", "MEAN_MOTION": 14.30813448, "ECCENTRICITY": 0.0125513, "INCLINATION": 98.4228, "RA_OF_ASC_NODE": 356.9494, "ARG_OF_PERICENTER": 237.3559, "MEAN_ANOMALY": 121.5464, "EPHEMERIS_TYPE": 0, "CLASSIFICATION_TYPE": "U", "NORAD_CAT_ID": 31293, "ELEMENT_SET_NO": 999, "REV_AT_EPOCH": 65280, "BSTAR": 8.5068727e-05, "MEAN_MOTION_DOT": 1.98e-06, "MEAN_MOTION_DDOT": 0}, "tle": {"line1": "1 31293U 99025BPB 25349.26651770  .00000198  00000+0  85069-4 0  9999", "line2": "2 31293  98.4228 356.9494 0125513 237.3559 121.5464 14.30813448652804"}}, "geometry": {"type": "Point", "coordinates": [8.239267122272368, -45.44571644788095]}}, {"type": "Feature", "properties": {"norad_id": 31294, "name": "FENGYUN 1C DEB", "group": "fengyun-1c-debris", "lat": 80.01812447295585, "lon": -71.27921541220925, "alt_km": 867.8664677686529, "timestamp": "2025-12-17T23:38:07.135700+00:00", "meta": {"OBJECT_NAME": "FENGYUN 1C DEB", "OBJECT_ID": "1999-025BPC", "EPOCH": "2025-12-17T06:16:15.951936", "MEAN_MOTION": 14.15321844, "ECCENTRICITY": 0.00994564, "INCLINATION": 98.5431, "RA_OF_ASC_NODE": 346.6837, "ARG_OF_PERICENTER": 328.0986, "MEAN_ANOMALY": 31.419, "EPHEMERIS_TYPE": 0, "CLASSIFICATION_TYPE": "U", "NORAD_CAT_ID": 31294, "ELEMENT_SET_NO": 999, "REV_AT_EPOCH": 96917, "BSTAR": 0.00045241326, "MEAN_MOTION_DOT": 8.82e-06, "MEAN_MOTION_DDOT": 0}, "tle": {"line1": "1 31294U 99025BPC 25351.26129574  .00000882  00000+0  45241-3 0  9992", "line2": "2 31294  98.5431 346.6837 0099456 328.0986  31.4190 14.15321844969170"}}, "geometry": {"type": "Point", "coordinates": [-71.27921541220925, 80.01812447295585]}}, {"type": "Feature", "properties": {"norad_id": 31295, "name": "FENGYUN 1C DEB", "group": "fengyun-1c-debris", "lat": 41.402692974435865, "lon": 169.0124142416371, "alt_km": 955.7030543441715, "timestamp": "2025-12-17T23:38:07.135710+00:00", "meta": {"OBJECT_NAME": "FENGYUN 1C DEB", "OBJECT_ID": "1999-025BPD", "EPOCH": "2025-12-17T11:23:55.565952", "MEAN_MOTION": 13.9683415, "ECCENTRICITY": 0.00769821, "INCLINATION": 98.3166, "RA_OF_ASC_NODE": 175.9611, "ARG_OF_PERICENTER": 237.8119, "MEAN_ANOMALY": 121.5565, "EPHEMERIS_TYPE": 0, "CLASSIFICATION_TYPE": "U", "NORAD_CAT_ID": 31295, "ELEMENT_SET_NO": 999, "REV_AT_EPOCH": 95569, "BSTAR": -2.2361809e-05, "MEAN_MOTION_DOT": -7e-07, "MEAN_MOTION_DDOT": 0}, "tle": {"line1": "1 31295U 99025BPD 25351.47494868 -.00000070  00000+0 -22362-4 0  9998", "line2": "2 31295  98.3166 175.9611 0076982 237.8119 121.5565 13.96834150955697"}}, "geometry": {"type": "Point", "coordinates": [169.0124142416371, 41.402692974435865]}}, {"type": "Feature", "properties": {"norad_id": 31296, "name": "FENGYUN 1C DEB", "group": "fengyun-1c-debris", "lat": 4.4190594889137875, "lon": 88.18408712388151, "alt_km": 645.126830932124, "timestamp": "2025-12-17T23:38:07.135721+00:00", "meta": {"OBJECT_NAME": "FENGYUN 1C DEB", "OBJECT_ID": "1999-025BPE", "EPOCH": "2025-12-17T04:53:28.254336", "MEAN_MOTION": 14.71684339, "ECCENTRICITY": 0.00196221, "INCLINATION": 99.0666, "RA_OF_ASC_NODE": 266.6077, "ARG_OF_PERICENTER": 199.2821, "MEAN_ANOMALY": 160.7642, "EPHEMERIS_TYPE": 0, "CLASSIFICATION_TYPE": "U", "NORAD_CAT_ID": 31296, "ELEMENT_SET_NO": 999, "REV_AT_EPOCH": 97415, "BSTAR": 0.0031749247, "MEAN_MOTION_DOT": 0.00019838, "MEAN_MOTION_DDOT": 0}, "tle": {"line1": "1 31296U 99025BPE 25351.20379924  .00019838  00000+0  31749-2 0  9992", "line2": "2 31296  99.0666 266.6077 0019622 199.2821 160.7642 14.71684339974153"}}, "geometry": {"type": "Point", "coordinates": [88.18408712388151, 4.4190594889137875]}}, {"type": "Feature", "properties": {"norad_id": 31297, "name": "FENGYUN 1C DEB", "group": "fengyun-1c-debris", "lat": 15.710267141958616, "lon": 126.71935375305856, "alt_km": 703.5652675798037, "timestamp": "2025-12-17T23:38:07.135731+00:00", "meta": {"OBJECT_NAME": "FENGYUN 1C DEB", "OBJECT_ID": "1999-025BPF", "EPOCH": "2025-12-17T15:24:36.997632", "MEAN_MOTION": 14.57098535, "ECCENTRICITY": 0.01397287, "INCLINATION": 98.9338, "RA_OF_ASC_NODE": 128.8879, "ARG_OF_PERICENTER": 108.0388, "MEAN_ANOMALY": 272.9201, "EPHEMERIS_TYPE": 0, "CLASSIFICATION_TYPE": "U", "NORAD_CAT_ID": 31297, "ELEMENT_SET_NO": 999, "REV_AT_EPOCH": 99387, "BSTAR": 0.00028934408, "MEAN_MOTION_DOT": 1.43e-05, "MEAN_MOTION_DDOT": 0}, "tle": {"line1": "1 31297U 99025BPF 25351.64209488  .00001430  00000+0  28934-3 0  9990", "line2": "2 31297  98.9338 128.8879 0139728 108.0388 272.9201 14.57098535993871"}}, "geometry": {"type": "Point", "coordinates": [126.71935375305856, 15.710267141958616]}}, {"type": "Feature", "properties": {"norad_id": 31300, "name": "FENGYUN 1C DEB", "group": "fengyun-1c-debris", "lat": -66.61234150892817, "lon": -131.19240094163635, "alt_km": 888.8345494537343, "timestamp": "2025-12-17T23:38:07.135741+00:00", "meta": {"OBJECT_NAME": "FENGYUN 1C DEB", "OBJECT_ID": "1999-025BPJ", "EPOCH": "2025-12-17T03:53:21.006816", "MEAN_MOTION": 14.15146943, "ECCENTRICITY": 0.00600418, "INCLINATION": 99.5426, "RA_OF_ASC_NODE": 70.8173, "ARG_OF_PERICENTER": 47.7209, "MEAN_ANOMALY": 331.7842, "EPHEMERIS_TYPE": 0, "CLASSIFICATION_TYPE": "U", "NORAD_CAT_ID": 31300, "ELEMENT_SET_NO": 999, "REV_AT_EPOCH": 96237, "BSTAR": 0.00096905872, "MEAN_MOTION_DOT": 1.864e-05, "MEAN_MOTION_DDOT": 0}, "tle": {"line1": "1 31300U 99025BPJ 25351.16204869  .00001864  00000+0  96906-3 0  9995", "line2": "2 31300  99.5426  70.8173 0060041  47.7209 331.7842 14.15146943962373"}}, "geometry": {"type": "Point", "coordinates": [-131.19240094163635, -66.61234150892817]}}, {"type": "Feature", "properties": {"norad_id": 31302, "name": "FENGYUN 1C DEB", "group": "fengyun-1c-debris", "lat": -37.924110314199524, "lon": 41.853481211826114, "alt_km": 802.3795554025846, "timestamp": "2025-12-17T23:38:07.135751+00:00", "meta": {"OBJECT_NAME": "FENGYUN 1C DEB", "OBJECT_ID": "1999-025BPL", "EPOCH": "2025-12-17T02:04:57.059328", "MEAN_MOTION": 14.27561304, "ECCENTRICITY": 0.00266845, "INCLINATION": 99.414, "RA_OF_ASC_NODE": 33.4598, "ARG_OF_PERICENTER": 42.7026, "MEAN_ANOMALY": 346.5219, "EPHEMERIS_TYPE": 0, "CLASSIFICATION_TYPE": "U", "NORAD_CAT_ID": 31302, "ELEMENT_SET_NO": 999, "REV_AT_EPOCH": 96420, "BSTAR": 0.0010670655, "MEAN_MOTION_DOT": 2.585e-05, "MEAN_MOTION_DDOT": 0}, "tle": {"line1": "1 31302U 99025BPL 25351.08677152  .00002585  00000+0  10671-2 0  9992", "line2": "2 31302  99.4140  33.4598 0026684  42.7026 346.5219 14.27561304964201"}}, "geometry": {"type": "Point", "coordinates": [41.853481211826114, -37.924110314199524]}}, {"type": "Feature", "properties": {"norad_id": 31303, "name": "FENGYUN 1C DEB", "group": "fengyun-1c-debris", "lat": 77.4478286555501, "lon": -128.4985851037926, "alt_km": 841.9086975796072, "timestamp": "2025-12-17T23:38:07.135761+00:00", "meta": {"OBJECT_NAME": "FENGYUN 1C DEB", "OBJECT_ID": "1999-025BPM", "EPOCH": "2025-12-16T21:38:24.008064", "MEAN_MOTION": 14.11026834, "ECCENTRICITY": 0.00117848, "INCLINATION": 98.7043, "RA_OF_ASC_NODE": 6.9757, "ARG_OF_PERICENTER": 140.8786, "MEAN_ANOMALY": 219.3239, "EPHEMERIS_TYPE": 0, "CLASSIFICATION_TYPE": "U", "NORAD_CAT_ID": 31303, "ELEMENT_SET_NO": 999, "REV_AT_EPOCH": 96377, "BSTAR": 0.00013953251, "MEAN_MOTION_DOT": 2.08e-06, "MEAN_MOTION_DDOT": 0}, "tle": {"line1": "1 31303U 99025BPM 25350.90166676  .00000208  00000+0  13953-3 0  9994", "line2": "2 31303  98.7043   6.9757 0011784 140.8786 219.3239 14.11026834963773"}}, "geometry": {"type": "Point", "coordinates": [-128.4985851037926, 77.4478286555501]}}]}